OBJECT_NAME,OBJECT_ID,EPOCH,MEAN_MOTION,ECCENTRICITY,INCLINATION,RA_OF_ASC_NODE,ARG_OF_PERICENTER,MEAN_ANOMALY,EPHEMERIS_TYPE,CLASSIFICATION_TYPE,NORAD_CAT_ID,ELEMENT_SET_NO,REV_AT_EPOCH,BSTAR,MEAN_MOTION_DOT,MEAN_MOTION_DDOT
COSMOS 2507 (RODNIK-S 13),2015-050A,2026-06-26T23:19:45.304032,12.42926591,.00097715,82.4925,73.5779,335.7296,24.3322,0,U,40920,999,48807,-.36890404E-3,-.41E-6,0
COSMOS 2508 (RODNIK-S 14),2015-050B,2026-06-27T00:11:02.051232,12.42914290,.0014793,82.4877,72.0572,6.4238,353.7028,0,U,40921,999,48806,.35611127E-4,.15E-6,0
COSMOS 2509 (RODNIK-S 15),2015-050C,2026-06-26T22:44:45.318336,12.42883570,.00154305,82.4885,72.1979,22.9429,337.2337,0,U,40922,999,48809,-.27883668E-3,-.29E-6,0
LINGQIAO VIDEO A,2015-057B,2026-06-26T23:29:41.074368,14.77404806,.00152884,97.6620,172.2977,235.3689,124.6081,0,U,40959,999,57685,.93669833E-4,.619E-5,0
LINGQIAO VIDEO B,2015-057C,2026-06-26T22:55:04.752768,14.77512342,.00154906,97.6586,173.4357,235.2722,124.7031,0,U,40960,999,57689,.16822875E-3,.1153E-4,0
JILIN-1,2015-057D,2026-06-26T23:08:17.369952,14.78174976,.00156802,97.6508,176.8454,228.0491,131.9385,0,U,40961,999,57705,.1154015E-3,.789E-5,0
FOX-1A (AO-85),2015-058D,2026-06-26T19:26:21.337152,14.91008064,.01310245,64.7748,249.0783,52.8500,308.4494,0,U,40967,999,11500,.20610904E-3,.2228E-4,0
SINOD-D 1,2015-058E,2026-06-26T10:30:11.270880,14.95955298,.0119663,64.7739,229.9429,49.4285,311.7170,0,U,40968,999,11804,.26324E-3,.3234E-4,0
ELEKTRO-L 2,2015-074A,2026-06-25T22:47:48.794784,1.00271163,.00007276,6.7170,70.4166,286.6211,244.4527,0,U,41105,999,3859,0,-.113E-5,0
DAMPE,2015-078A,2026-06-26T23:21:53.455104,15.30809873,.00133679,97.4560,183.4886,47.0655,313.1705,0,U,41173,999,58604,.51309227E-4,.1453E-4,0
ORBCOMM FM110,2015-081D,2026-06-26T18:14:57.357312,14.58893443,.00026174,47.0031,316.1781,133.2012,226.9093,0,U,41182,999,55902,.16079029E-3,.589E-5,0
ORBCOMM FM112,2015-081F,2026-06-26T20:49:14.298240,14.58914222,.00041058,46.9974,224.4712,256.1813,103.8616,0,U,41184,999,56036,.11005951E-3,.349E-5,0
ORBCOMM FM113,2015-081G,2026-06-26T20:16:02.022240,14.58866369,.00025954,46.9993,224.9614,257.9556,102.1039,0,U,41185,999,56034,.95260175E-4,.279E-5,0
ORBCOMM FM108,2015-081J,2026-06-26T22:38:58.621056,14.58885454,.00031803,47.0043,136.0678,258.0223,102.0307,0,U,41187,999,56150,.16109637E-3,.591E-5,0
ORBCOMM FM117,2015-081K,2026-06-26T13:36:18.639360,14.58871605,.0003648,47.0000,136.4805,260.3036,99.7438,0,U,41188,999,56149,.9733E-4,.289E-5,0
ORBCOMM FM116,2015-081L,2026-06-26T19:42:26.692992,14.58893573,.00006967,47.0008,225.0693,160.4089,199.6823,0,U,41189,999,56034,.1173219E-3,.384E-5,0
HORYU-4,2016-012D,2026-06-26T20:23:26.833632,16.08207360,.00088162,30.9825,7.5384,329.4490,30.5661,0,U,41340,999,57236,.12212368E-2,.1084955E-1,.65487385E-3
ZIYUAN 3-02 (ZY 3-02),2016-033A,2026-06-26T23:46:23.888928,15.21268573,.00124936,97.3839,253.5762,252.7540,107.2329,0,U,41556,999,55947,.23933323E-3,.529E-4,0
CARTOSAT-2C,2016-040A,2026-06-26T22:34:00.787296,15.19264103,.00105314,97.4486,237.7840,101.4507,258.7911,0,U,41599,999,55519,.20275876E-3,.4212E-4,0
LAPAN-A3,2016-040E,2026-06-26T23:33:13.157856,15.33166389,.00096426,97.1487,173.8053,351.5573,8.5506,0,U,41603,999,55631,.12879946E-3,.4056E-4,0
GAOFEN-3,2016-049A,2026-06-27T00:07:14.663712,14.42216604,.00015956,98.4013,185.6426,98.3948,261.7423,0,U,41727,999,52006,.24474497E-4,.37E-6,0
CAS-2T & KS-1Q,2016-066G,2026-06-26T22:29:13.970400,14.44724717,.03429,98.3821,253.5619,99.9996,264.0069,0,U,41847,999,50620,.23521577E-3,.1633E-4,0
YUNHAI-1 01,2016-068A,2026-06-26T22:41:16.881792,14.32429340,.00055937,98.5846,188.8602,32.3866,327.7660,0,U,41857,999,50322,.14027638E-3,.336E-5,0
RESOURCESAT-2A,2016-074A,2026-06-26T17:06:55.122336,14.21619347,.00032264,98.7527,251.1399,65.3724,294.7789,0,U,41877,999,49565,.87901773E-4,.149E-5,0
