COSMOS 2507 (RODNIK-S *)
1 40920U 15050A   26177.97205213 -.00000041  00000+0 -36890-3 0  9993
2 40920  82.4925  73.5779 0009771 335.7296  24.3322 12.42926591488078
COSMOS 2508 (RODNIK-S *)
1 40921U 15050B   26178.00766263  .00000015  00000+0  35611-4 0  9996
2 40921  82.4877  72.0572 0014793   6.4238 353.7028 12.42914290488062
COSMOS 2509 (RODNIK-S *)
1 40922U 15050C   26177.94774674 -.00000029  00000+0 -27884-3 0  9993
2 40922  82.4885  72.1979 0015430  22.9429 337.2337 12.42883570488097
LINGQIAO VIDEO A        
1 40959U 15057B   26177.97894762  .00000619  00000+0  93670-4 0  9994
2 40959  97.6620 172.2977 0015288 235.3689 124.6081 14.77404806576858
LINGQIAO VIDEO B        
1 40960U 15057C   26177.95491612  .00001153  00000+0  16823-3 0  9999
2 40960  97.6586 173.4357 0015490 235.2722 124.7031 14.77512342576893
JILIN-1                 
1 40961U 15057D   26177.96408993  .00000789  00000+0  11540-3 0  9996
2 40961  97.6508 176.8454 0015680 228.0491 131.9385 14.78174976577056
FOX-1A (AO-85)          
1 40967U 15058D   26177.80996918  .00002228  00000+0  20611-3 0  9994
2 40967  64.7748 249.0783 0131024  52.8500 308.4494 14.91008064115000
SINOD-D 1               
1 40968U 15058E   26177.43763045  .00003234  00000+0  26324-3 0  9992
2 40968  64.7739 229.9429 0119663  49.4285 311.7170 14.95955298118041
ELEKTRO-L 2             
1 41105U 15074A   26176.94987031 -.00000113  00000+0  00000+0 0  9995
2 41105   6.7170  70.4166 0000727 286.6211 244.4527  1.00271163 38594
DAMPE                   
1 41173U 15078A   26177.97353536  .00001453  00000+0  51309-4 0  9995
2 41173  97.4560 183.4886 0013367  47.0655 313.1705 15.30809873586041
ORBCOMM FM110           
1 41182U 15081D   26177.76038608  .00000589  00000+0  16079-3 0  9999
2 41182  47.0031 316.1781 0002617 133.2012 226.9093 14.58893443559029
ORBCOMM FM112           
1 41184U 15081F   26177.86752660  .00000349  00000+0  11006-3 0  9992
2 41184  46.9974 224.4712 0004105 256.1813 103.8616 14.58914222560360
ORBCOMM FM113           
1 41185U 15081G   26177.84446785  .00000279  00000+0  95260-4 0  9996
2 41185  46.9993 224.9614 0002595 257.9556 102.1039 14.58866369560349
ORBCOMM FM108           
1 41187U 15081J   26177.94373404  .00000591  00000+0  16110-3 0  9999
2 41187  47.0043 136.0678 0003180 258.0223 102.0307 14.58885454561508
ORBCOMM FM117           
1 41188U 15081K   26177.56688240  .00000289  00000+0  97330-4 0  9993
2 41188  47.0000 136.4805 0003648 260.3036  99.7438 14.58871605561493
ORBCOMM FM116           
1 41189U 15081L   26177.82114228  .00000384  00000+0  11732-3 0  9990
2 41189  47.0008 225.0693 0000696 160.4089 199.6823 14.58893573560349
HORYU-4                 
1 41340U 16012D   26177.84961613  .01084955  65487-3  12212-2 0  9998
2 41340  30.9825   7.5384 0008816 329.4490  30.5661 16.08207360572369
ZIYUAN 3-02 (ZY 3-02)   
1 41556U 16033A   26177.99055427  .00005290  00000+0  23933-3 0  9996
2 41556  97.3839 253.5762 0012493 252.7540 107.2329 15.21268573559470
CARTOSAT-2C             
1 41599U 16040A   26177.94028689  .00004212  00000+0  20276-3 0  9996
2 41599  97.4486 237.7840 0010531 101.4507 258.7911 15.19264103555197
LAPAN-A3                
1 41603U 16040E   26177.98140229  .00004056  00000+0  12880-3 0  9999
2 41603  97.1487 173.8053 0009642 351.5573   8.5506 15.33166389556318
GAOFEN-3                
1 41727U 16049A   26178.00503083  .00000037  00000+0  24474-4 0  9998
2 41727  98.4013 185.6426 0001595  98.3948 261.7423 14.42216604520069
CAS-2T & KS-1Q          
1 41847U 16066G   26177.93696725  .00001633  00000+0  23522-3 0  9992
2 41847  98.3821 253.5619 0342900  99.9996 264.0069 14.44724717506208
YUNHAI-1 01             
1 41857U 16068A   26177.94533428  .00000336  00000+0  14028-3 0  9996
2 41857  98.5846 188.8602 0005593  32.3866 327.7660 14.32429340503225
RESOURCESAT-2A          
1 41877U 16074A   26177.71313799  .00000149  00000+0  87902-4 0  9991
2 41877  98.7527 251.1399 0003226  65.3724 294.7789 14.21619347495650
